GLOBALSTAR M001         
1 25162U 98008A   24305.36237219 -.00000055  00000+0  32229-3 0  9999
2 25162  52.0030 279.2321 0001616 113.4040  33.5979 12.38198227215367
GLOBALSTAR M004         
1 25163U 98008B   24305.61084657 -.00000088  00000+0  87799-4 0  9993
2 25163  52.0026  31.4728 0003557 139.2411 359.5833 12.63376526232790
GLOBALSTAR M002         
1 25164U 98008C   24305.42440280 -.00000058  00000+0  36960-3 0  9991
2 25164  51.9997  93.7834 0002320  96.0640 264.0444 11.61505425157485
GLOBALSTAR M003         
1 25165U 98008D   24305.43737080  .00000028  00000+0  12547-2 0  9990
2 25165  51.9954  82.0495 0008230 188.2869 210.6050 12.12048881205485
GLOBALSTAR M014         
1 25306U 98023A   24305.49015414 -.00000042  00000+0  67259-3 0  9998
2 25306  51.9873  21.6542 0000469 286.5461 191.8925 11.65473979164505
GLOBALSTAR M006         
1 25307U 98023B   24305.58058029 -.00000056  00000+0  41185-3 0  9993
2 25307  51.9951  65.3520 0004087  63.3071 309.6011 11.58169279190345
GLOBALSTAR M015         
1 25308U 98023C   24305.56748778 -.00000028  00000+0  10370-2 0  9999
2 25308  51.9784 153.3824 0013272  33.3267   5.2462 11.48853913167803
GLOBALSTAR M008         
1 25309U 98023D   24305.54343830 -.00000017  00000+0  62600-3 0  9990
2 25309  51.9941 140.9448 0003485  63.4557 323.4041 12.36053567209578
